{
  "type": "FeatureCollection",
  "features": [
    {
      "type": "Feature",
      "properties": {
        "norad_id": 40118,
        "name": "GAOFEN-2",
        "group": "resource",
        "lat": -27.531563434216597,
        "lon": -123.72112409952638,
        "alt_km": 637.4291312966034,
        "timestamp": "2025-12-27T07:26:24.878159+00:00",
        "meta_object_name": "GAOFEN-2",
        "meta_object_id": "2014-049A",
        "meta_epoch": "2025-12-26T22:23:46.137696",
        "meta_mean_motion": 14.80632532,
        "meta_eccentricity": 0.00087089,
        "meta_inclination": 98.0361,
        "meta_ra_of_asc_node": 60.1248,
        "meta_arg_of_pericenter": 74.1369,
        "meta_mean_anomaly": 286.0803,
        "meta_ephemeris_type": 0,
        "meta_classification_type": "U",
        "meta_norad_cat_id": 40118,
        "meta_element_set_no": 999,
        "meta_rev_at_epoch": 61374,
        "meta_bstar": 0.00013746238,
        "meta_mean_motion_dot": 1.002e-05,
        "meta_mean_motion_ddot": 0,
        "tle_line1": "1 40118U 14049A   25360.93317289  .00001002  00000+0  13746-3 0  9996",
        "tle_line2": "2 40118  98.0361  60.1248 0008708  74.1369 286.0803 14.80632532613749"
      },
      "geometry": {
        "type": "Point",
        "coordinates": [
          -123.72112409952638,
          -27.531563434216597
        ]
      }
    },
    {
      "type": "Feature",
      "properties": {
        "norad_id": 40143,
        "name": "YAOGAN-21",
        "group": "resource",
        "lat": -82.72641625244854,
        "lon": 143.30375678912145,
        "alt_km": 501.1139760346596,
        "timestamp": "2025-12-27T07:26:24.878174+00:00",
        "meta_object_name": "YAOGAN-21",
        "meta_object_id": "2014-053A",
        "meta_epoch": "2025-12-26T22:23:00.386304",
        "meta_mean_motion": 15.23816238,
        "meta_eccentricity": 0.00083055,
        "meta_inclination": 97.1737,
        "meta_ra_of_asc_node": 43.6274,
        "meta_arg_of_pericenter": 354.2078,
        "meta_mean_anomaly": 5.9062,
        "meta_ephemeris_type": 0,
        "meta_classification_type": "U",
        "meta_norad_cat_id": 40143,
        "meta_element_set_no": 999,
        "meta_rev_at_epoch": 62870,
        "meta_bstar": 0.00019350583,
        "meta_mean_motion_dot": 4.597e-05,
        "meta_mean_motion_ddot": 0,
        "tle_line1": "1 40143U 14053A   25360.93264336  .00004597  00000+0  19351-3 0  9993",
        "tle_line2": "2 40143  97.1737  43.6274 0008305 354.2078   5.9062 15.23816238628703"
      },
      "geometry": {
        "type": "Point",
        "coordinates": [
          143.30375678912145,
          -82.72641625244854
        ]
      }
    },
    {
      "type": "Feature",
      "properties": {
        "norad_id": 40275,
        "name": "YAOGAN-22",
        "group": "resource",
        "lat": 0.47691425301116946,
        "lon": 144.84502844185377,
        "alt_km": 1208.4041653840613,
        "timestamp": "2025-12-27T07:26:24.878192+00:00",
        "meta_object_name": "YAOGAN-22",
        "meta_object_id": "2014-063A",
        "meta_epoch": "2025-12-26T22:18:41.744448",
        "meta_mean_motion": 13.15523322,
        "meta_eccentricity": 0.00061209,
        "meta_inclination": 100.7431,
        "meta_ra_of_asc_node": 144.55,
        "meta_arg_of_pericenter": 214.2749,
        "meta_mean_anomaly": 145.7967,
        "meta_ephemeris_type": 0,
        "meta_classification_type": "U",
        "meta_norad_cat_id": 40275,
        "meta_element_set_no": 999,
        "meta_rev_at_epoch": 53716,
        "meta_bstar": 6.3747025e-05,
        "meta_mean_motion_dot": -2.3e-07,
        "meta_mean_motion_ddot": 0,
        "tle_line1": "1 40275U 14063A   25360.92964982 -.00000023  00000+0  63747-4 0  9993",
        "tle_line2": "2 40275 100.7431 144.5500 0006120 214.2749 145.7967 13.15523322537161"
      },
      "geometry": {
        "type": "Point",
        "coordinates": [
          144.84502844185377,
          0.47691425301116946
        ]
      }
    },
    {
      "type": "Feature",
      "properties": {
        "norad_id": 40298,
        "name": "ASNARO",
        "group": "resource",
        "lat": 75.97696134568729,
        "lon": -71.9173293849387,
        "alt_km": 495.6454465039769,
        "timestamp": "2025-12-27T07:26:24.878202+00:00",
        "meta_object_name": "ASNARO",
        "meta_object_id": "2014-070A",
        "meta_epoch": "2025-12-26T23:05:34.016064",
        "meta_mean_motion": 15.19780996,
        "meta_eccentricity": 0.00056426,
        "meta_inclination": 97.3632,
        "meta_ra_of_asc_node": 76.5609,
        "meta_arg_of_pericenter": 84.0715,
        "meta_mean_anomaly": 276.1163,
        "meta_ephemeris_type": 0,
        "meta_classification_type": "U",
        "meta_norad_cat_id": 40298,
        "meta_element_set_no": 999,
        "meta_rev_at_epoch": 61785,
        "meta_bstar": 0.00024627312,
        "meta_mean_motion_dot": 5.206e-05,
        "meta_mean_motion_ddot": 0,
        "tle_line1": "1 40298U 14070A   25360.96219926  .00005206  00000+0  24627-3 0  9991",
        "tle_line2": "2 40298  97.3632  76.5609 0005642  84.0715 276.1163 15.19780996617858"
      },
      "geometry": {
        "type": "Point",
        "coordinates": [
          -71.9173293849387,
          75.97696134568729
        ]
      }
    },
    {
      "type": "Feature",
      "properties": {
        "norad_id": 40310,
        "name": "YAOGAN-24",
        "group": "resource",
        "lat": -40.27133331494581,
        "lon": 139.43189482750273,
        "alt_km": 655.4152191162284,
        "timestamp": "2025-12-27T07:26:24.878213+00:00",
        "meta_object_name": "YAOGAN-24",
        "meta_object_id": "2014-072A",
        "meta_epoch": "2025-12-26T23:29:27.350592",
        "meta_mean_motion": 14.76204963,
        "meta_eccentricity": 0.00152021,
        "meta_inclination": 98.1232,
        "meta_ra_of_asc_node": 132.1488,
        "meta_arg_of_pericenter": 95.4728,
        "meta_mean_anomaly": 264.8216,
        "meta_ephemeris_type": 0,
        "meta_classification_type": "U",
        "meta_norad_cat_id": 40310,
        "meta_element_set_no": 999,
        "meta_rev_at_epoch": 59831,
        "meta_bstar": 0.00011537463,
        "meta_mean_motion_dot": 7.47e-06,
        "meta_mean_motion_ddot": 0,
        "tle_line1": "1 40310U 14072A   25360.97878878  .00000747  00000+0  11537-3 0  9997",
        "tle_line2": "2 40310  98.1232 132.1488 0015202  95.4728 264.8216 14.76204963598314"
      },
      "geometry": {
        "type": "Point",
        "coordinates": [
          139.43189482750273,
          -40.27133331494581
        ]
      }
    },
    {
      "type": "Feature",
      "properties": {
        "norad_id": 40336,
        "name": "CBERS 4",
        "group": "resource",
        "lat": 81.66428563326434,
        "lon": -29.93932141341804,
        "alt_km": 764.5190309793088,
        "timestamp": "2025-12-27T07:26:24.878223+00:00",
        "meta_object_name": "CBERS 4",
        "meta_object_id": "2014-079A",
        "meta_epoch": "2025-12-26T22:39:33.643296",
        "meta_mean_motion": 14.35522435,
        "meta_eccentricity": 0.00018959,
        "meta_inclination": 98.3285,
        "meta_ra_of_asc_node": 58.4733,
        "meta_arg_of_pericenter": 97.255,
        "meta_mean_anomaly": 262.8851,
        "meta_ephemeris_type": 0,
        "meta_classification_type": "U",
        "meta_norad_cat_id": 40336,
        "meta_element_set_no": 999,
        "meta_rev_at_epoch": 57924,
        "meta_bstar": -5.110602e-06,
        "meta_mean_motion_dot": -5.7e-07,
        "meta_mean_motion_ddot": 0,
        "tle_line1": "1 40336U 14079A   25360.94413939 -.00000057  00000+0 -51106-5 0  9996",
        "tle_line2": "2 40336  98.3285  58.4733 0001895  97.2550 262.8851 14.35522435579247"
      },
      "geometry": {
        "type": "Point",
        "coordinates": [
          -29.93932141341804,
          81.66428563326434
        ]
      }
    },
    {
      "type": "Feature",
      "properties": {
        "norad_id": 40362,
        "name": "YAOGAN-26",
        "group": "resource",
        "lat": 82.81383779406758,
        "lon": -98.91061436426929,
        "alt_km": 440.02754371546325,
        "timestamp": "2025-12-27T07:26:24.878233+00:00",
        "meta_object_name": "YAOGAN-26",
        "meta_object_id": "2014-088A",
        "meta_epoch": "2025-12-26T23:14:49.993152",
        "meta_mean_motion": 15.39815072,
        "meta_eccentricity": 0.00041106,
        "meta_inclination": 97.0648,
        "meta_ra_of_asc_node": 1.1395,
        "meta_arg_of_pericenter": 344.0064,
        "meta_mean_anomaly": 16.1053,
        "meta_ephemeris_type": 0,
        "meta_classification_type": "U",
        "meta_norad_cat_id": 40362,
        "meta_element_set_no": 999,
        "meta_rev_at_epoch": 61113,
        "meta_bstar": 0.00068857448,
        "meta_mean_motion_dot": 0.00027296,
        "meta_mean_motion_ddot": 0,
        "tle_line1": "1 40362U 14088A   25360.96863418  .00027296  00000+0  68857-3 0  9999",
        "tle_line2": "2 40362  97.0648   1.1395 0004110 344.0064  16.1053 15.39815072611136"
      },
      "geometry": {
        "type": "Point",
        "coordinates": [
          -98.91061436426929,
          82.81383779406758
        ]
      }
    }
  ]
}